XW-4 (CAS-10)           
1 54816U 21035C   23015.03940179  .00189839  00000+0  17016-2 0  9993
2 54816  41.4777   8.6343 0004039  71.3678 288.7588 15.66900564  4257
2022-176A               
1 54818U 22176A   23015.21782587  .00230048  13811-4  10633-2 0  9995
2 54818  97.2718 156.1038 0302359 123.2069 359.0070 15.39300314  2905
2022-176B               
1 54819U 22176B   23015.17437099  .00389442  52180-4  93816-3 0  9996
2 54819  97.2235 156.9946 0147757 104.0251 257.7494 15.80190520  2978
STARLINK-5382           
1 54820U 22177A   23015.25001157 -.01211954  00000+0 -11779-1 0  9990
2 54820  42.9961 267.2726 0001627 273.4770 106.9504 15.68055288  2971
STARLINK-5385           
1 54821U 22177B   23014.41667824 -.01209401  00000+0 -10740-1 0  9998
2 54821  42.9967 272.2806 0001794 264.7574  83.2750 15.70209001  2846
STARLINK-5101           
1 54822U 22177C   23015.25001157 -.01225592  00000+0 -11901-1 0  9992
2 54822  42.9969 267.2590 0001722 273.0868 112.9121 15.68105676  2979
STARLINK-5106           
1 54823U 22177D   23015.25001157 -.01212613  00000+0 -11757-1 0  9992
2 54823  42.9968 267.2697 0001626 270.2866 111.6061 15.68115068  2972
STARLINK-4643           
1 54824U 22177E   23015.25001157 -.01211915  00000+0 -11733-1 0  9991
2 54824  42.9966 267.2668 0001646 274.0811 108.5634 15.68148804  2978
STARLINK-4801           
1 54825U 22177F   23015.00001157 -.01195309  00000+0 -11227-1 0  9991
2 54825  42.9973 268.7686 0001446 273.2159 137.5427 15.68844001  2937
STARLINK-5107           
1 54826U 22177G   23015.25001157 -.01235172  00000+0 -12020-1 0  9994
2 54826  42.9963 267.2601 0002038 275.8170 109.5354 15.68071251  2978
STARLINK-5383           
1 54827U 22177H   23015.25001157 -.01215951  00000+0 -11676-1 0  9994
2 54827  42.9981 267.2588 0001585 274.0597 113.0508 15.68355988  2976
STARLINK-5381           
1 54828U 22177J   23015.25001157 -.01215048  00000+0 -11649-1 0  9992
2 54828  42.9973 267.2557 0001624 275.5646 112.2954 15.68391540  2979
STARLINK-5380           
1 54829U 22177K   23014.41667824 -.01213298  00000+0 -10733-1 0  9997
2 54829  42.9971 272.2757 0001567 263.8163  86.1630 15.70311194  2842
STARLINK-5394           
1 54830U 22177L   23015.25001157 -.01207730  00000+0 -11524-1 0  9996
2 54830  42.9972 267.2500 0001629 273.8246 116.2558 15.68489947  2974
STARLINK-5395           
1 54831U 22177M   23014.41667824 -.01226457  00000+0 -10794-1 0  9998
2 54831  42.9973 272.2698 0001408 262.5671  89.9816 15.70461920  2845
STARLINK-5393           
1 54832U 22177N   23015.00001157  .00067756  00000+0  51657-3 0  9993
2 54832  43.0006 268.7523 0001779 283.2528 137.3140 15.71326308  2933
STARLINK-5391           
1 54833U 22177P   23015.00001157 -.01057269  00000+0 -99134-2 0  9996
2 54833  42.9954 268.7538 0000736 268.3688 147.4267 15.68996798  2937
STARLINK-5386           
1 54834U 22177Q   23015.25001157 -.01213535  00000+0 -11569-1 0  9999
2 54834  42.9978 267.2444 0001638 273.6518 117.7357 15.68524114  2970
STARLINK-5389           
1 54835U 22177R   23014.41667824 -.01212777  00000+0 -10619-1 0  9998
2 54835  42.9967 272.2640 0001583 267.7671  86.6990 15.70552540  2846
STARLINK-5384           
1 54836U 22177S   23015.00001157 -.01189111  00000+0 -10993-1 0  9996
2 54836  42.9964 268.7458 0001138 272.4053 146.7180 15.69213643  2939
STARLINK-5369           
1 54837U 22177T   23014.41667824 -.01215510  00000+0 -10584-1 0  9999
2 54837  42.9977 272.2573 0001695 258.9947  98.5876 15.70688478  2841
STARLINK-5372           
1 54838U 22177U   23015.25001157 -.01209566  00000+0 -11464-1 0  9996
2 54838  42.9945 267.2356 0001730 287.7787 106.5193 15.68655104  2975
STARLINK-5110           
1 54839U 22177V   23015.00001157 -.01191404  00000+0 -10953-1 0  9993
2 54839  42.9969 268.7403 0001428 280.7299 141.1764 15.69349321  2933
STARLINK-5368           
1 54840U 22177W   23015.00001157 -.01198402  00000+0 -11006-1 0  9990
2 54840  42.9998 268.7404 0001531 251.3928 171.1647 15.69388060  2932
STARLINK-4659           
1 54841U 22177X   23015.25001157 -.01216351  00000+0 -11548-1 0  9993
2 54841  42.9956 267.2377 0001620 275.8454 117.7360 15.68629868  2979
STARLINK-5387           
1 54842U 22177Y   23015.25001157 -.01211576  00000+0 -11404-1 0  9999
2 54842  42.9976 267.2292 0001815 270.3449 127.5505 15.68824724  2976
STARLINK-5304           
1 54843U 22177Z   23015.16667824 -.01191175  00000+0 -11163-1 0  9993
2 54843  43.0003 267.7422 0001733 243.7170  40.0546 15.68886518  2966
STARLINK-5388           
1 54844U 22177AA  23015.25001157 -.01216650  00000+0 -11426-1 0  9993
2 54844  42.9958 267.2225 0001579 273.9746 125.9293 15.68891987  2971
STARLINK-5082           
1 54845U 22177AB  23015.25001157 -.01207339  00000+0 -11377-1 0  9993
2 54845  42.9961 267.2292 0001682 274.4345 122.7553 15.68789585  2970
STARLINK-5360           
1 54846U 22177AC  23014.91667824 -.01179849  00000+0 -10687-1 0  9992
2 54846  42.9943 269.2295 0000840 285.6685  27.5536 15.69683785  2926
STARLINK-5061           
1 54847U 22177AD  23014.91667824 -.00808098  00000+0 -47502-2 0  9994
2 54847  42.9951 268.4469 0001877 262.9479   2.7632 15.79404924  2930
STARLINK-5432           
1 54848U 22177AE  23015.16667824  .00007419  00000+0  59896-4 0  9990
2 54848  42.9993 267.7119 0001770 268.8752  24.5638 15.71386828  2967
STARLINK-5434           
1 54849U 22177AF  23015.25001157 -.01212112  00000+0 -11362-1 0  9996
2 54849  42.9959 267.2215 0001680 280.6002 120.0334 15.68926308  2977
STARLINK-5087           
1 54850U 22177AG  23014.91667824 -.00000257  00000+0  14879-5 0  9992
2 54850  42.9997 269.2228 0001552 257.3134  61.4523 15.71353342  2921
STARLINK-5084           
1 54851U 22177AH  23014.91667824  .00012928  00000+0  10194-3 0  9994
2 54851  42.9984 269.2206 0001481 269.0090  49.1149 15.71340343  2920
STARLINK-5418           
1 54852U 22177AJ  23015.25001157  .00006181  00000+0  50588-4 0  9990
2 54852  42.9993 267.2007 0002348 275.3070 133.0925 15.71335410  2978
STARLINK-5427           
1 54853U 22177AK  23015.25001157 -.00056568  00000+0 -42972-3 0  9994
2 54853  42.9989 267.2048 0001522 263.6619 143.5474 15.71417491  2976
STARLINK-5419           
1 54854U 22177AL  23015.25001157 -.00000226  00000+0  17261-5 0  9999
2 54854  42.9990 267.1981 0002297 265.0512 144.5557 15.71356726  2978
STARLINK-5416           
1 54855U 22177AM  23014.91667824  .00177670  00000+0  13384-2 0  9997
2 54855  42.9981 269.2136 0001480 277.6122  43.4924 15.71198839  2922
STARLINK-5086           
1 54856U 22177AN  23014.58334491  .00000442  00000+0  68165-5 0  9994
2 54856  42.9999 271.2123 0001679 252.6500 345.3403 15.71352888  2870
STARLINK-5078           
1 54857U 22177AP  23014.58334491 -.00000392  00000+0  45820-6 0  9994
2 54857  42.9988 271.2222 0002094 267.2149 324.7900 15.71345994  2875
STARLINK-5407           
1 54858U 22177AQ  23014.91667824  .00043595  00000+0  33429-3 0  9991
2 54858  42.9987 269.2070 0002069 267.7100  55.1474 15.71344780  2926
STARLINK-5409           
1 54859U 22177AR  23015.25001157  .00000386  00000+0  63941-5 0  9996
2 54859  43.0000 267.1941 0001622 263.3813 149.8594 15.71353588  2971
STARLINK-5406           
1 54860U 22177AS  23015.25001157  .00077692  00000+0  59146-3 0  9992
2 54860  42.9990 267.1847 0002042 269.1493 145.2664 15.71311729  2978
STARLINK-5400           
1 54861U 22177AT  23014.58334491  .00000327  00000+0  59383-5 0  9994
2 54861  42.9999 271.2214 0001713 249.5725 344.8449 15.71352950  2874
STARLINK-5403           
1 54862U 22177AU  23014.58334491  .00000271  00000+0  55165-5 0  9997
2 54862  42.9999 271.2168 0001631 276.0651 320.1387 15.71352979  2874
STARLINK-5405           
1 54863U 22177AV  23015.00001157  .00082384  00000+0  61905-3 0  9998
2 54863  42.9960 268.6995 0001410 240.7890 196.5057 15.71600839  2936
STARLINK-5359           
1 54864U 22177AW  23015.00001157 -.00003396  00000+0 -22458-4 0  9998
2 54864  42.9998 268.6977 0001576 253.2166 186.4616 15.71355068  2802
STARLINK-5411           
1 54865U 22177AX  23015.25001157 -.00035285  00000+0 -26645-3 0  9999
2 54865  42.9991 267.1934 0001886 264.2703 147.1223 15.71381757  2842
STARLINK-5398           
1 54866U 22177AY  23015.25001157  .00076344  00000+0  58050-3 0  9994
2 54866  42.9994 267.1772 0001838 277.7012 139.6598 15.71346865  2971
STARLINK-5396           
1 54867U 22177AZ  23015.25001157  .00105367  00000+0  79791-3 0  9998
2 54867  42.9991 267.1844 0001629 276.5252 138.4451 15.71322888  2840
STARLINK-5379           
1 54868U 22177BA  23015.00001157  .00053557  00000+0  40952-3 0  9992
2 54868  42.9995 268.6838 0002657 264.7404 177.8513 15.71336603  2806
STARLINK-5402           
1 54869U 22177BB  23015.00001157  .00065687  00000+0  50109-3 0  9995
2 54869  42.9987 268.6900 0001624 259.2117 181.6186 15.71323399  2808
STARLINK-5401           
1 54870U 22177BC  23015.00001157  .00038994  00000+0  29963-3 0  9992
2 54870  42.9991 268.6859 0001730 255.4250 186.5807 15.71337995  2803
STARLINK-5397           
1 54871U 22177BD  23015.25001157 -.00039896  00000+0 -30137-3 0  9999
2 54871  42.9991 267.1810 0001570 265.6374 150.4997 15.71423352  2844
STARLINK-5390           
1 54872U 22177BE  23015.00001157  .00054275  00000+0  41510-3 0  9996
2 54872  43.0038 268.9356 0002234 287.5104  58.8465 15.71328123  2802
STARLINK-5091           
1 54873U 22177BF  23015.25001157  .00019876  00000+0  15453-3 0  9999
2 54873  42.9991 267.1746 0001824 262.5645 156.5650 15.71373617  2978
SHIYAN 10-02 (SY-10 02) 
1 54878U 22178A   22363.79780338  .00077346 -29724-6  44060-2 0  9997
2 54878  50.9483 118.8361 7526046 225.2074  62.4529  2.01136930    40
CZ-3B R/B               
1 54879U 22178B   23014.33011127  .00010591  00000+0  19366-2 0  9993
2 54879  51.2607 115.0884 7524931 228.6235  37.1814  1.99316965   342
